start=new Date('2022-02-27T00:00:00.000Z').valueOf();
sats=[{"APOAPSIS":"548.355","FILE":"3327391","OBJECT_ID":"2021-009AA","ECCENTRICITY":"0.00016160","NORAD_CAT_ID":"47572","GP_ID":"197159981","TIME_SYSTEM":"UTC","INCLINATION":"53.0570","PERIOD":"95.593","PERIAPSIS":"546.116","MEAN_ANOMALY":"300.1826","BSTAR":"0.00004152700000","MEAN_MOTION_DOT":"0.00000337","SEMIMAJOR_AXIS":"6925.371","OBJECT_NAME":"STARLINK-1971","ELEMENT_SET_NO":"999","SITE":"AFETR","RA_OF_ASC_NODE":"139.6660","OBJECT_TYPE":"PAYLOAD","DECAY_DATE":null,"TLE_LINE2":"2 47572  53.0570 139.6660 0001616  59.9323 300.1826 15.06392811 59070","EPOCH":"2022-02-26T16:41:00.451104","CLASSIFICATION_TYPE":"U","MEAN_MOTION_DDOT":"0.0000000000000","CENTER_NAME":"EARTH","REF_FRAME":"TEME","COUNTRY_CODE":"US","MEAN_MOTION":"15.06392811","ARG_OF_PERICENTER":"59.9323","LAUNCH_DATE":"2021-02-04","MEAN_ELEMENT_THEORY":"SGP4","RCS_SIZE":"LARGE","REV_AT_EPOCH":"5907","TLE_LINE1":"1 47572U 21009AA  22057.69514411  .00000337  00000-0  41527-4 0  9990","EPHEMERIS_TYPE":"0"},{"MEAN_MOTION_DDOT":"0.0000000000000","CLASSIFICATION_TYPE":"U","CENTER_NAME":"EARTH","REF_FRAME":"TEME","COUNTRY_CODE":"US","MEAN_MOTION":"15.06387480","TLE_LINE2":"2 47573  53.0559 140.0561 0001542  64.6798 295.4351 15.06387480 59054","EPOCH":"2022-02-26T14:33:37.539936","TLE_LINE1":"1 47573U 21009AB  22057.60668449  .00001594  00000-0  12592-3 0  9998","EPHEMERIS_TYPE":"0","ARG_OF_PERICENTER":"64.6798","LAUNCH_DATE":"2021-02-04","MEAN_ELEMENT_THEORY":"SGP4","RCS_SIZE":"LARGE","REV_AT_EPOCH":"5905","GP_ID":"197159234","TIME_SYSTEM":"UTC","APOAPSIS":"548.320","FILE":"3327391","OBJECT_ID":"2021-009AB","NORAD_CAT_ID":"47573","ECCENTRICITY":"0.00015420","SEMIMAJOR_AXIS":"6925.387","OBJECT_NAME":"STARLINK-1975","MEAN_MOTION_DOT":"0.00001594","ELEMENT_SET_NO":"999","SITE":"AFETR","RA_OF_ASC_NODE":"140.0561","OBJECT_TYPE":"PAYLOAD","DECAY_DATE":null,"PERIOD":"95.593","INCLINATION":"53.0559","PERIAPSIS":"546.184","MEAN_ANOMALY":"295.4351","BSTAR":"0.00012592000000"},{"INCLINATION":"53.0556","PERIOD":"95.592","MEAN_ANOMALY":"298.5880","PERIAPSIS":"546.109","BSTAR":"0.00008749100000","SITE":"AFETR","ELEMENT_SET_NO":"999","SEMIMAJOR_AXIS":"6925.345","MEAN_MOTION_DOT":"0.00001022","OBJECT_NAME":"STARLINK-1976","OBJECT_TYPE":"PAYLOAD","RA_OF_ASC_NODE":"169.0947","DECAY_DATE":null,"OBJECT_ID":"2021-009AC","FILE":"3327391","APOAPSIS":"548.311","NORAD_CAT_ID":"47574","ECCENTRICITY":"0.00015900","GP_ID":"197159484","TIME_SYSTEM":"UTC","LAUNCH_DATE":"2021-02-04","ARG_OF_PERICENTER":"61.5269","MEAN_ELEMENT_THEORY":"SGP4","REV_AT_EPOCH":"5866","RCS_SIZE":"LARGE","TLE_LINE1":"1 47574U 21009AC  22057.82137539  .00001022  00000-0  87491-4 0  9991","EPHEMERIS_TYPE":"0","EPOCH":"2022-02-26T19:42:46.833696","TLE_LINE2":"2 47574  53.0556 169.0947 0001590  61.5269 298.5880 15.06401162 58664","REF_FRAME":"TEME","MEAN_MOTION_DDOT":"0.0000000000000","CENTER_NAME":"EARTH","CLASSIFICATION_TYPE":"U","COUNTRY_CODE":"US","MEAN_MOTION":"15.06401162"},{"PERIOD":"95.593","INCLINATION":"53.0554","PERIAPSIS":"546.265","MEAN_ANOMALY":"291.1182","BSTAR":"0.00002015700000","OBJECT_NAME":"STARLINK-1977","SEMIMAJOR_AXIS":"6925.374","MEAN_MOTION_DOT":"0.00000019","ELEMENT_SET_NO":"999","SITE":"AFETR","RA_OF_ASC_NODE":"169.7379","OBJECT_TYPE":"PAYLOAD","DECAY_DATE":null,"APOAPSIS":"548.213","FILE":"3327391","OBJECT_ID":"2021-009AD","ECCENTRICITY":"0.00014060","NORAD_CAT_ID":"47575","GP_ID":"197159735","TIME_SYSTEM":"UTC","ARG_OF_PERICENTER":"68.9957","LAUNCH_DATE":"2021-02-04","MEAN_ELEMENT_THEORY":"SGP4","RCS_SIZE":"LARGE","REV_AT_EPOCH":"5864","TLE_LINE1":"1 47575U 21009AD  22057.67763523  .00000019  00000-0  20157-4 0  9994","EPHEMERIS_TYPE":"0","TLE_LINE2":"2 47575  53.0554 169.7379 0001406  68.9957 291.1182 15.06391704 58642","EPOCH":"2022-02-26T16:15:47.683872","CENTER_NAME":"EARTH","MEAN_MOTION_DDOT":"0.0000000000000","CLASSIFICATION_TYPE":"U","REF_FRAME":"TEME","COUNTRY_CODE":"US","MEAN_MOTION":"15.06391704"},{"ARG_OF_PERICENTER":"49.5712","LAUNCH_DATE":"2021-02-04","MEAN_ELEMENT_THEORY":"SGP4","RCS_SIZE":"LARGE","REV_AT_EPOCH":"5924","TLE_LINE1":"1 47576U 21009AE  22057.90985015  .00002983  00000-0  21909-3 0  9990","EPHEMERIS_TYPE":"0","TLE_LINE2":"2 47576  53.0551 128.6895 0001573  49.5712 310.5413 15.06392713 59247","EPOCH":"2022-02-26T21:50:11.052960","CENTER_NAME":"EARTH","MEAN_MOTION_DDOT":"0.0000000000000","CLASSIFICATION_TYPE":"U","REF_FRAME":"TEME","COUNTRY_CODE":"US","MEAN_MOTION":"15.06392713","INCLINATION":"53.0551","PERIOD":"95.593","PERIAPSIS":"546.147","MEAN_ANOMALY":"310.5413","BSTAR":"0.00021909000000","MEAN_MOTION_DOT":"0.00002983","SEMIMAJOR_AXIS":"6925.371","ELEMENT_SET_NO":"999","OBJECT_NAME":"STARLINK-1978","SITE":"AFETR","RA_OF_ASC_NODE":"128.6895","OBJECT_TYPE":"PAYLOAD","DECAY_DATE":null,"APOAPSIS":"548.325","FILE":"3327391","OBJECT_ID":"2021-009AE","NORAD_CAT_ID":"47576","ECCENTRICITY":"0.00015730","GP_ID":"197160482","TIME_SYSTEM":"UTC"},{"EPHEMERIS_TYPE":"0","TLE_LINE1":"1 47577U 21009AF  22057.55276551 -.00002161  00000-0 -12626-3 0  9996","MEAN_ELEMENT_THEORY":"SGP4","RCS_SIZE":"LARGE","REV_AT_EPOCH":"5898","LAUNCH_DATE":"2021-02-04","ARG_OF_PERICENTER":"83.1392","MEAN_MOTION":"15.06394914","CLASSIFICATION_TYPE":"U","MEAN_MOTION_DDOT":"0.0000000000000","CENTER_NAME":"EARTH","REF_FRAME":"TEME","COUNTRY_CODE":"US","TLE_LINE2":"2 47577  53.0530 145.3050 0001726  83.1392 276.9794 15.06394914 58984","EPOCH":"2022-02-26T13:15:58.940064","RA_OF_ASC_NODE":"145.3050","OBJECT_TYPE":"PAYLOAD","DECAY_DATE":null,"SEMIMAJOR_AXIS":"6925.364","ELEMENT_SET_NO":"999","MEAN_MOTION_DOT":"-0.00002161","OBJECT_NAME":"STARLINK-1979","SITE":"AFETR","BSTAR":"-0.00012626000000","PERIOD":"95.592","INCLINATION":"53.0530","PERIAPSIS":"546.034","MEAN_ANOMALY":"276.9794","GP_ID":"197110420","TIME_SYSTEM":"UTC","NORAD_CAT_ID":"47577","ECCENTRICITY":"0.00017260","APOAPSIS":"548.424","OBJECT_ID":"2021-009AF","FILE":"3326397"},{"TLE_LINE1":"1 47578U 21009AG  22057.67947964 -.00000112  00000-0  11401-4 0  9997","EPHEMERIS_TYPE":"0","LAUNCH_DATE":"2021-02-04","ARG_OF_PERICENTER":"65.9372","REV_AT_EPOCH":"5892","RCS_SIZE":"LARGE","MEAN_ELEMENT_THEORY":"SGP4","COUNTRY_CODE":"US","REF_FRAME":"TEME","MEAN_MOTION_DDOT":"0.0000000000000","CLASSIFICATION_TYPE":"U","CENTER_NAME":"EARTH","MEAN_MOTION":"15.06386099","EPOCH":"2022-02-26T16:18:27.040896","TLE_LINE2":"2 47578  53.0550 149.7248 0001461  65.9372 294.1770 15.06386099 58921","SITE":"AFETR","ELEMENT_SET_NO":"999","SEMIMAJOR_AXIS":"6925.391","MEAN_MOTION_DOT":"-0.00000112","OBJECT_NAME":"STARLINK-1980","DECAY_DATE":null,"OBJECT_TYPE":"PAYLOAD","RA_OF_ASC_NODE":"149.7248","MEAN_ANOMALY":"294.1770","PERIAPSIS":"546.244","PERIOD":"95.593","INCLINATION":"53.0550","BSTAR":"0.00001140100000","TIME_SYSTEM":"UTC","GP_ID":"197158984","FILE":"3327391","OBJECT_ID":"2021-009AG","APOAPSIS":"548.268","ECCENTRICITY":"0.00014610","NORAD_CAT_ID":"47578"},{"EPHEMERIS_TYPE":"0","TLE_LINE1":"1 47579U 21009AH  22057.59562357  .00000807  00000-0  73102-4 0  9994","MEAN_ELEMENT_THEORY":"SGP4","REV_AT_EPOCH":"5905","RCS_SIZE":"LARGE","ARG_OF_PERICENTER":"55.8690","LAUNCH_DATE":"2021-02-04","MEAN_MOTION":"15.06386556","REF_FRAME":"TEME","MEAN_MOTION_DDOT":"0.0000000000000","CLASSIFICATION_TYPE":"U","CENTER_NAME":"EARTH","COUNTRY_CODE":"US","EPOCH":"2022-02-26T14:17:41.876448","TLE_LINE2":"2 47579  53.0556 140.1087 0001597  55.8690 304.2450 15.06386556 59056","OBJECT_TYPE":"PAYLOAD","RA_OF_ASC_NODE":"140.1087","DECAY_DATE":null,"SITE":"AFETR","SEMIMAJOR_AXIS":"6925.390","OBJECT_NAME":"STARLINK-1981","MEAN_MOTION_DOT":"0.00000807","ELEMENT_SET_NO":"999","BSTAR":"0.00007310200000","INCLINATION":"53.0556","PERIOD":"95.593","MEAN_ANOMALY":"304.2450","PERIAPSIS":"546.149","GP_ID":"197160236","TIME_SYSTEM":"UTC","ECCENTRICITY":"0.00015970","NORAD_CAT_ID":"47579","FILE":"3327391","OBJECT_ID":"2021-009AH","APOAPSIS":"548.361"},{"APOAPSIS":"548.333","OBJECT_ID":"2021-009AJ","FILE":"3327391","NORAD_CAT_ID":"47580","ECCENTRICITY":"0.00015970","GP_ID":"197159982","TIME_SYSTEM":"UTC","INCLINATION":"53.0551","PERIOD":"95.592","PERIAPSIS":"546.121","MEAN_ANOMALY":"298.4938","BSTAR":"0.00016989000000","ELEMENT_SET_NO":"999","SEMIMAJOR_AXIS":"6925.362","MEAN_MOTION_DOT":"0.00002250","OBJECT_NAME":"STARLINK-1982","SITE":"AFETR","RA_OF_ASC_NODE":"149.4126","OBJECT_TYPE":"PAYLOAD","DECAY_DATE":null,"TLE_LINE2":"2 47580  53.0551 149.4126 0001597  61.6211 298.4938 15.06395512 58936","EPOCH":"2022-02-26T17:59:17.711520","MEAN_MOTION_DDOT":"0.0000000000000","CLASSIFICATION_TYPE":"U","CENTER_NAME":"EARTH","REF_FRAME":"TEME","COUNTRY_CODE":"US","MEAN_MOTION":"15.06395512","LAUNCH_DATE":"2021-02-04","ARG_OF_PERICENTER":"61.6211","MEAN_ELEMENT_THEORY":"SGP4","RCS_SIZE":"LARGE","REV_AT_EPOCH":"5893","TLE_LINE1":"1 47580U 21009AJ  22057.74951055  .00002250  00000-0  16989-3 0  9993","EPHEMERIS_TYPE":"0"},{"ARG_OF_PERICENTER":"58.6840","LAUNCH_DATE":"2021-02-04","MEAN_ELEMENT_THEORY":"SGP4","REV_AT_EPOCH":"5920","RCS_SIZE":"LARGE","TLE_LINE1":"1 47581U 21009AK  22057.66288975 -.00000538  00000-0 -17214-4 0  9991","EPHEMERIS_TYPE":"0","EPOCH":"2022-02-26T15:54:33.674400","TLE_LINE2":"2 47581  53.0560 129.8121 0001798  58.6840 301.4324 15.06391565 59200","REF_FRAME":"TEME","MEAN_MOTION_DDOT":"0.0000000000000","CENTER_NAME":"EARTH","CLASSIFICATION_TYPE":"U","COUNTRY_CODE":"US","MEAN_MOTION":"15.06391565","PERIOD":"95.593","INCLINATION":"53.0560","MEAN_ANOMALY":"301.4324","PERIAPSIS":"545.994","BSTAR":"-0.00001721400000","SITE":"AFETR","SEMIMAJOR_AXIS":"6925.374","ELEMENT_SET_NO":"999","MEAN_MOTION_DOT":"-0.00000538","OBJECT_NAME":"STARLINK-1984","OBJECT_TYPE":"PAYLOAD","RA_OF_ASC_NODE":"129.8121","DECAY_DATE":null,"FILE":"3327391","OBJECT_ID":"2021-009AK","APOAPSIS":"548.485","ECCENTRICITY":"0.00017980","NORAD_CAT_ID":"47581","GP_ID":"197159235","TIME_SYSTEM":"UTC"}];
